TECHDEMOSAT-1 (TDS-1)   
1 40076U 14037H   26068.92236573  .00011104  00000+0  65800-3 0  9999
2 40076  98.3776  51.4583 0004745 234.8100 125.2683 15.11581991633227
STARLINK-4001           
1 52628U 22052AG  26068.96262980  .00001084  00000+0  86179-4 0  9995
2 52628  53.2171 282.8956 0001129  97.8534 262.2586 15.08829256210823
